              M50 Cartesian                         J2K Cartesian  
    -----------------------------------       --------------------------------
     X    =      -11772741.18                 X    =        -3578281.35
     Y    =       -9855464.86  feet           Y    =        -3044016.14  meter
     Z    =       16079591.09                 Z    =         4883652.73
     XDOT =       8074.485247                 XDOT =        2549.254366
     YDOT =     -22504.853657  feet/sec       YDOT =       -6831.465049  meter/sec
     ZDOT =      -7854.784985                 ZDOT =       -2381.968198
 
              TDR Cartesian                         TDR Cartesian  
    -----------------------------------       --------------------------------
     X    =       -9229508.51                 X    =        -2813154.19
     Y    =      -12367470.40  feet           Y    =        -3769604.98  meter
     Z    =       16004459.40                 Z    =         4878159.23
     XDOT =      12281.145505                 XDOT =        3743.293150
     YDOT =     -19294.977863  feet/sec       YDOT =       -5881.109253  meter/sec
     ZDOT =      -7800.694086                 ZDOT =       -2377.651558
  
  
    The mean element set is posted at the UTC for which position is
    just north of the next ascending node relative to the above
    vector time
 
 
    TWO LINE MEAN ELEMENT SET
  
    ISS
    1 25544U 98067A   16089.48853280  .00016717  00000-0  10270-3 0  9076
    2 25544  51.6408  95.5372 0002310   7.6020 352.5168 15.54296581 32582
  
  
    Satellite: ISS
    Catalog Number: 25544
    Epoch time:      16089.48853280   =   yrday.fracday
    Element set:     907
    Inclination:       51.6408  deg
    RA of node:        95.5372  deg
    Eccentricity:     .0002310     
    Arg of perigee:     7.6020  deg
    Mean anomaly:     352.5168  deg
    Mean motion:   15.54296581  rev/day
    Decay rate:    1.67170E-04  rev/day^2
    Epoch rev:            3258
    Checksum:              312
 
 
    Coasting Arc #9 (Orbit 3272)
    ---------------------------------------
 
    Vector Time (GMT): 2016/090/10:40:00.000
    Vector Time (MET): N/A
    Weight (LBS)     : 917037.0
 
              M50 Cartesian                         M50 Keplerian  
    -----------------------------------       --------------------------------
     X    =        3097407.21                 A    =         6782314.73  meter
     Y    =        4561476.55  meter          E    =           .0006826
     Z    =       -3954996.05                 I    =           52.00919
     XDOT =      -3165.900073                 Wp   =           85.78533
     YDOT =       5670.320697  meter/sec      RA   =           89.89396  deg
     ZDOT =       4066.936805                 TA   =          226.52010
                                              MA   =          226.57688
                                              Ha   =            221.134  n.mi
                                              Hp   =            214.285
 
              M50 Cartesian                         J2K Cartesian  
    -----------------------------------       --------------------------------
     X    =       10162097.16                 X    =         3065381.20
     Y    =       14965474.25  feet           Y    =         4595934.40  meter
     Z    =      -12975708.83                 Z    =        -3940027.74
     XDOT =     -10386.811264                 XDOT =       -3248.827230
     YDOT =      18603.414361  feet/sec       YDOT =        5634.454180  meter/sec
     ZDOT =      13342.968520                 ZDOT =        4051.355672
 
              TDR Cartesian                         TDR Cartesian  
    -----------------------------------       --------------------------------
     X    =        6735044.67                 X    =         2052841.62
     Y    =       16838533.66  feet           Y    =         5132385.06  meter
     Z    =      -12911452.87                 Z    =        -3935410.84
     XDOT =     -13049.961035                 XDOT =       -3977.628124
     YDOT =      15381.654975  feet/sec       YDOT =        4688.328436  meter/sec
     ZDOT =      13274.244752                 ZDOT =        4045.989800
  
  
    The mean element set is posted at the UTC for which position is
    just north of the next ascending node relative to the above
    vector time
 
 
    TWO LINE MEAN ELEMENT SET
  
    ISS
    1 25544U 98067A   16090.45297110  .00016717  00000-0  10270-3 0  9080
    2 25544  51.6427  90.7289 0002427  10.6491 349.4713 15.54283345 32734
  
  
    Satellite: ISS
    Catalog Number: 25544
    Epoch time:      16090.45297110   =   yrday.fracday
    Element set:     908
    Inclination:       51.6427  deg
    RA of node:        90.7289  deg
    Eccentricity:     .0002427     
    Arg of perigee:    10.6491  deg
    Mean anomaly:     349.4713  deg
    Mean motion:   15.54283345  rev/day
    Decay rate:    1.67170E-04  rev/day^2
    Epoch rev:            3273
    Checksum:              308
 
 
    Coasting Arc #10 (Orbit 3275)
    ---------------------------------------
 
    Vector Time (GMT): 2016/090/14:15:30.000
    Vector Time (MET): N/A
    Weight (LBS)     : 901911.1
 
              M50 Cartesian                         M50 Keplerian  
    -----------------------------------       --------------------------------
     X    =       -3894598.66                 A    =         6778189.40  meter
     Y    =        2340903.34  meter          E    =           .0005276
     Z    =        5025303.39                 I    =           51.99305
     XDOT =      -1694.295255                 Wp   =           99.14974
     YDOT =      -7199.739665  meter/sec      RA   =           89.19309  deg
     ZDOT =       2038.098097                 TA   =          331.13243
                                              MA   =          331.16161
                                              Ha   =            221.145  n.mi
                                              Hp   =            214.257
 
              M50 Cartesian                         J2K Cartesian  
    -----------------------------------       --------------------------------
     X    =      -12777554.65                 X    =        -3944896.63
     Y    =        7680129.07  feet           Y    =         2297070.55  meter
     Z    =       16487215.84                 Z    =         5006261.96
     XDOT =      -5558.711465                 XDOT =       -1623.560295
     YDOT =     -23621.193125  feet/sec       YDOT =       -7218.290721  meter/sec
     ZDOT =       6686.673548                 ZDOT =        2030.040033
 
              TDR Cartesian                         TDR Cartesian  
    -----------------------------------       --------------------------------
     X    =       -4577639.41                 X    =        -1395264.49
     Y    =       14283953.85  feet           Y    =         4353749.13  meter
     Z    =       16404037.65                 Z    =         4999950.68
     XDOT =     -18786.989994                 XDOT =       -5726.274550
     YDOT =     -13671.093059  feet/sec       YDOT =       -4166.949164  meter/sec
     ZDOT =       6652.920248                 ZDOT =        2027.810092
  
  
    The mean element set is posted at the UTC for which position is
    just north of the next ascending node relative to the above
    vector time
 
 
    TWO LINE MEAN ELEMENT SET
  
    ISS
    1 25544U 98067A   16090.64585817  .00016717  00000-0  10270-3 0  9096
    2 25544  51.6401  89.7671 0002470   5.5753 354.5427 15.54306381 32769
  
  
    Satellite: ISS
    Catalog Number: 25544
    Epoch time:      16090.64585817   =   yrday.fracday
    Element set:     909
    Inclination:       51.6401  deg
    RA of node:        89.7671  deg
    Eccentricity:     .0002470     
    Arg of perigee:     5.5753  deg
    Mean anomaly:     354.5427  deg
    Mean motion:   15.54306381  rev/day
    Decay rate:    1.67170E-04  rev/day^2
    Epoch rev:            3276
    Checksum:              319
 
 
    Coasting Arc #11 (Orbit 3290)
    ---------------------------------------
 
    Vector Time (GMT): 2016/091/14:15:30.000
    Vector Time (MET): N/A
    Weight (LBS)     : 901911.1
 
              M50 Cartesian                         M50 Keplerian  
    -----------------------------------       --------------------------------
     X    =        4150970.14                 A    =         6776917.55  meter
     Y    =        -494804.26  meter          E    =           .0015590
     Z    =       -5347218.20                 I    =           51.98671
     XDOT =        821.615752                 Wp   =           80.30791
     YDOT =       7612.975415  meter/sec      RA   =           84.21619  deg
     ZDOT =        -64.265264                 TA   =          189.06766
                                              MA   =          189.09584
                                              Ha   =            221.141  n.mi
                                              Hp   =            214.335
 
              M50 Cartesian                         J2K Cartesian  
    -----------------------------------       --------------------------------
     X    =       13618668.44                 X    =         4182169.18
     Y    =       -1623373.56  feet           Y    =         -448211.36  meter
     Z    =      -17543366.78                 Z    =        -5326977.97
     XDOT =       2695.589738                 XDOT =         736.736676
     YDOT =      24976.953461  feet/sec       YDOT =        7621.688676  meter/sec
     ZDOT =       -210.844041                 ZDOT =         -60.480858
 
